{"type": "FeatureCollection", "features": [ {"type": "Feature", "properties": {"norad_id": 43622, "name": "BEIDOU-3 M13 (C32)", "group": "beidou", "lat": 37.46978426159412, "lon": 99.00474019370662, "alt_km": 21529.44110208947, "timestamp": "2025-12-22T22:44:21.240836+00:00", "meta": {"OBJECT_NAME": "BEIDOU-3 M13 (C32)", "OBJECT_ID": "2018-072A", "EPOCH": "2025-12-22T08:10:31.412640", "MEAN_MOTION": 1.86231166, "ECCENTRICITY": 0.00064111, "INCLINATION": 56.4667, "RA_OF_ASC_NODE": 68.5024, "ARG_OF_PERICENTER": 297.4685, "MEAN_ANOMALY": 62.5173, "EPHEMERIS_TYPE": 0, "CLASSIFICATION_TYPE": "U", "NORAD_CAT_ID": 43622, "ELEMENT_SET_NO": 999, "REV_AT_EPOCH": 4936, "BSTAR": 0, "MEAN_MOTION_DOT": -2.9e-07, "MEAN_MOTION_DDOT": 0}, "tle": {"line1": "1 43622U 18072A   25356.34064135 -.00000029  00000+0  00000+0 0  9992", "line2": "2 43622  56.4667  68.5024 0006411 297.4685  62.5173  1.86231166 49361"}}, "geometry": {"type": "Point", "coordinates": [99.00474019370662, 37.46978426159412]}}, {"type": "Feature", "properties": {"norad_id": 43623, "name": "BEIDOU-3 M14 (C33)", "group": "beidou", "lat": 34.60296892459105, "lon": -138.68841518969322, "alt_km": 21533.655302107407, "timestamp": "2025-12-22T22:44:21.240847+00:00", "meta": {"OBJECT_NAME": "BEIDOU-3 M14 (C33)", "OBJECT_ID": "2018-072B", "EPOCH": "2025-12-22T04:56:47.689728", "MEAN_MOTION": 1.86231163, "ECCENTRICITY": 0.00035757, "INCLINATION": 56.4687, "RA_OF_ASC_NODE": 68.5008, "ARG_OF_PERICENTER": 327.1514, "MEAN_ANOMALY": 32.8768, "EPHEMERIS_TYPE": 0, "CLASSIFICATION_TYPE": "U", "NORAD_CAT_ID": 43623, "ELEMENT_SET_NO": 999, "REV_AT_EPOCH": 4935, "BSTAR": 0, "MEAN_MOTION_DOT": -3e-07, "MEAN_MOTION_DDOT": 0}, "tle": {"line1": "1 43623U 18072B   25356.20610752 -.00000030  00000+0  00000+0 0  9992", "line2": "2 43623  56.4687  68.5008 0003575 327.1514  32.8768  1.86231163 49352"}}, "geometry": {"type": "Point", "coordinates": [-138.68841518969322, 34.60296892459105]}}, {"type": "Feature", "properties": {"norad_id": 43647, "name": "BEIDOU-3 M16 (C35)", "group": "beidou", "lat": 24.99999725554874, "lon": -34.25269663109654, "alt_km": 21504.66847075917, "timestamp": "2025-12-22T22:44:21.240858+00:00", "meta": {"OBJECT_NAME": "BEIDOU-3 M16 (C35)", "OBJECT_ID": "2018-078A", "EPOCH": "2025-12-21T06:57:26.662752", "MEAN_MOTION": 1.86232383, "ECCENTRICITY": 0.00073912, "INCLINATION": 54.254, "RA_OF_ASC_NODE": 306.2225, "ARG_OF_PERICENTER": 20.1589, "MEAN_ANOMALY": 339.8673, "EPHEMERIS_TYPE": 0, "CLASSIFICATION_TYPE": "U", "NORAD_CAT_ID": 43647, "ELEMENT_SET_NO": 999, "REV_AT_EPOCH": 4884, "BSTAR": 0, "MEAN_MOTION_DOT": -6.2e-07, "MEAN_MOTION_DDOT": 0}, "tle": {"line1": "1 43647U 18078A   25355.28989193 -.00000062  00000+0  00000+0 0  9994", "line2": "2 43647  54.2540 306.2225 0007391  20.1589 339.8673  1.86232383 48840"}}, "geometry": {"type": "Point", "coordinates": [-34.25269663109654, 24.99999725554874]}}, {"type": "Feature", "properties": {"norad_id": 43648, "name": "BEIDOU-3 M15 (C34)", "group": "beidou", "lat": -41.88013112058776, "lon": -94.03647008330675, "alt_km": 21529.880368313894, "timestamp": "2025-12-22T22:44:21.240869+00:00", "meta": {"OBJECT_NAME": "BEIDOU-3 M15 (C34)", "OBJECT_ID": "2018-078B", "EPOCH": "2025-12-21T10:03:31.527360", "MEAN_MOTION": 1.86232375, "ECCENTRICITY": 0.0004048, "INCLINATION": 54.2499, "RA_OF_ASC_NODE": 306.2186, "ARG_OF_PERICENTER": 19.7002, "MEAN_ANOMALY": 340.3131, "EPHEMERIS_TYPE": 0, "CLASSIFICATION_TYPE": "U", "NORAD_CAT_ID": 43648, "ELEMENT_SET_NO": 999, "REV_AT_EPOCH": 4886, "BSTAR": 0, "MEAN_MOTION_DOT": -6.1e-07, "MEAN_MOTION_DDOT": 0}, "tle": {"line1": "1 43648U 18078B   25355.41911490 -.00000061  00000+0  00000+0 0  9994", "line2": "2 43648  54.2499 306.2186 0004048  19.7002 340.3131  1.86232375 48869"}}, "geometry": {"type": "Point", "coordinates": [-94.03647008330675, -41.88013112058776]}}, {"type": "Feature", "properties": {"norad_id": 43683, "name": "BEIDOU-3 G1 (C59)", "group": "beidou", "lat": 2.4614613049757064, "lon": -147.1461801456572, "alt_km": 35784.276297607845, "timestamp": "2025-12-22T22:44:21.240881+00:00", "meta": {"OBJECT_NAME": "BEIDOU-3 G1 (C59)", "OBJECT_ID": "2018-085A", "EPOCH": "2025-12-22T15:14:38.663808", "MEAN_MOTION": 1.00267649, "ECCENTRICITY": 0.00015098, "INCLINATION": 2.6311, "RA_OF_ASC_NODE": 102.6759, "ARG_OF_PERICENTER": 45.3864, "MEAN_ANOMALY": 312.0279, "EPHEMERIS_TYPE": 0, "CLASSIFICATION_TYPE": "U", "NORAD_CAT_ID": 43683, "ELEMENT_SET_NO": 999, "REV_AT_EPOCH": 2628, "BSTAR": 0, "MEAN_MOTION_DOT": -2.58e-06, "MEAN_MOTION_DDOT": 0}, "tle": {"line1": "1 43683U 18085A   25356.63516972 -.00000258  00000+0  00000+0 0  9990", "line2": "2 43683   2.6311 102.6759 0001509  45.3864 312.0279  1.00267649 26281"}}, "geometry": {"type": "Point", "coordinates": [-147.1461801456572, 2.4614613049757064]}}, {"type": "Feature", "properties": {"norad_id": 43706, "name": "BEIDOU-3 M17 (C36)", "group": "beidou", "lat": -14.699299996657906, "lon": 19.2101221256982, "alt_km": 21535.932861970312, "timestamp": "2025-12-22T22:44:21.240893+00:00", "meta": {"OBJECT_NAME": "BEIDOU-3 M17 (C36)", "OBJECT_ID": "2018-093A", "EPOCH": "2025-12-22T11:03:17.644896", "MEAN_MOTION": 1.86228432, "ECCENTRICITY": 0.00060427, "INCLINATION": 54.173, "RA_OF_ASC_NODE": 188.2918, "ARG_OF_PERICENTER": 307.405, "MEAN_ANOMALY": 284.4943, "EPHEMERIS_TYPE": 0, "CLASSIFICATION_TYPE": "U", "NORAD_CAT_ID": 43706, "ELEMENT_SET_NO": 999, "REV_AT_EPOCH": 4824, "BSTAR": 0, "MEAN_MOTION_DOT": 9.4e-07, "MEAN_MOTION_DDOT": 0}, "tle": {"line1": "1 43706U 18093A   25356.46062089  .00000094  00000+0  00000+0 0  9998", "line2": "2 43706  54.1730 188.2918 0006042 307.4050 284.4943  1.86228432 48248"}}, "geometry": {"type": "Point", "coordinates": [19.2101221256982, -14.699299996657906]}}, {"type": "Feature", "properties": {"norad_id": 43707, "name": "BEIDOU-3 M18 (C37)", "group": "beidou", "lat": -49.1494227625309, "lon": 131.56227684289274, "alt_km": 21526.007108074202, "timestamp": "2025-12-22T22:44:21.240904+00:00", "meta": {"OBJECT_NAME": "BEIDOU-3 M18 (C37)", "OBJECT_ID": "2018-093B", "EPOCH": "2025-12-20T21:39:28.587744", "MEAN_MOTION": 1.86226757, "ECCENTRICITY": 0.00062168, "INCLINATION": 54.1741, "RA_OF_ASC_NODE": 188.3365, "ARG_OF_PERICENTER": 353.7926, "MEAN_ANOMALY": 6.2524, "EPHEMERIS_TYPE": 0, "CLASSIFICATION_TYPE": "U", "NORAD_CAT_ID": 43707, "ELEMENT_SET_NO": 999, "REV_AT_EPOCH": 4821, "BSTAR": 0, "MEAN_MOTION_DOT": 9.5e-07, "MEAN_MOTION_DDOT": 0}, "tle": {"line1": "1 43707U 18093B   25354.90241421  .00000095  00000+0  00000+0 0  9996", "line2": "2 43707  54.1741 188.3365 0006216 353.7926   6.2524  1.86226757 48217"}}, "geometry": {"type": "Point", "coordinates": [131.56227684289274, -49.1494227625309]}}, {"type": "Feature", "properties": {"norad_id": 44231, "name": "BEIDOU-2 G8 (C01)", "group": "beidou", "lat": 1.01459450672801, "lon": -142.75629690240942, "alt_km": 35799.935183763606, "timestamp": "2025-12-22T22:44:21.240916+00:00", "meta": {"OBJECT_NAME": "BEIDOU-2 G8 (C01)", "OBJECT_ID": "2019-027A", "EPOCH": "2025-12-19T12:14:23.449632", "MEAN_MOTION": 1.00276563, "ECCENTRICITY": 0.0008196, "INCLINATION": 1.6785, "RA_OF_ASC_NODE": 74.7229, "ARG_OF_PERICENTER": 258.5641, "MEAN_ANOMALY": 83.1013, "EPHEMERIS_TYPE": 0, "CLASSIFICATION_TYPE": "U", "NORAD_CAT_ID": 44231, "ELEMENT_SET_NO": 999, "REV_AT_EPOCH": 2427, "BSTAR": 0, "MEAN_MOTION_DOT": -2.24e-06, "MEAN_MOTION_DDOT": 0}, "tle": {"line1": "1 44231U 19027A   25353.50999363 -.00000224  00000+0  00000+0 0  9992", "line2": "2 44231   1.6785  74.7229 0008196 258.5641  83.1013  1.00276563 24270"}}, "geometry": {"type": "Point", "coordinates": [-142.75629690240942, 1.01459450672801]}}, {"type": "Feature", "properties": {"norad_id": 44337, "name": "BEIDOU-3 IGSO-2 (C39)", "group": "beidou", "lat": 25.611561229229576, "lon": 179.86932645865107, "alt_km": 35941.051796665044, "timestamp": "2025-12-22T22:44:21.240941+00:00", "meta": {"OBJECT_NAME": "BEIDOU-3 IGSO-2 (C39)", "OBJECT_ID": "2019-035A", "EPOCH": "2025-12-22T08:36:51.729984", "MEAN_MOTION": 1.00268395, "ECCENTRICITY": 0.00377262, "INCLINATION": 55.2287, "RA_OF_ASC_NODE": 160.4168, "ARG_OF_PERICENTER": 202.3134, "MEAN_ANOMALY": 337.0221, "EPHEMERIS_TYPE": 0, "CLASSIFICATION_TYPE": "U", "NORAD_CAT_ID": 44337, "ELEMENT_SET_NO": 999, "REV_AT_EPOCH": 2389, "BSTAR": 0, "MEAN_MOTION_DOT": -7.5e-07, "MEAN_MOTION_DDOT": 0}, "tle": {"line1": "1 44337U 19035A   25356.35893206 -.00000075  00000+0  00000+0 0  9997", "line2": "2 44337  55.2287 160.4168 0037726 202.3134 337.0221  1.00268395 23892"}}, "geometry": {"type": "Point", "coordinates": [179.86932645865107, 25.611561229229576]}}, {"type": "Feature", "properties": {"norad_id": 44542, "name": "BEIDOU-3 M24 (C46)", "group": "beidou", "lat": -46.702338333764715, "lon": 58.203999467955434, "alt_km": 21554.647929482144, "timestamp": "2025-12-22T22:44:21.240954+00:00", "meta": {"OBJECT_NAME": "BEIDOU-3 M24 (C46)", "OBJECT_ID": "2019-061A", "EPOCH": "2025-12-20T23:21:37.865088", "MEAN_MOTION": 1.86229471, "ECCENTRICITY": 0.0009592, "INCLINATION": 54.4004, "RA_OF_ASC_NODE": 188.7381, "ARG_OF_PERICENTER": 25.7188, "MEAN_ANOMALY": 334.3821, "EPHEMERIS_TYPE": 0, "CLASSIFICATION_TYPE": "U", "NORAD_CAT_ID": 44542, "ELEMENT_SET_NO": 999, "REV_AT_EPOCH": 4247, "BSTAR": 0, "MEAN_MOTION_DOT": 9.6e-07, "MEAN_MOTION_DDOT": 0}, "tle": {"line1": "1 44542U 19061A   25354.97335492  .00000096  00000+0  00000+0 0  9990", "line2": "2 44542  54.4004 188.7381 0009592  25.7188 334.3821  1.86229471 42471"}}, "geometry": {"type": "Point", "coordinates": [58.203999467955434, -46.702338333764715]}}]}